COMMENT,ORIGINATOR,NORAD_CAT_ID,OBJECT_NAME,OBJECT_TYPE,CLASSIFICATION_TYPE,INTLDES,EPOCH,EPOCH_MICROSECONDS,MEAN_MOTION,ECCENTRICITY,INCLINATION,RA_OF_ASC_NODE,ARG_OF_PERICENTER,MEAN_ANOMALY,EPHEMERIS_TYPE,ELEMENT_SET_NO,REV_AT_EPOCH,BSTAR,MEAN_MOTION_DOT,MEAN_MOTION_DDOT,FILE,TLE_LINE0,TLE_LINE1,TLE_LINE2,OBJECT_ID,OBJECT_NUMBER,SEMIMAJOR_AXIS,PERIOD,APOGEE,PERIGEE,DECAYED
GENERATED VIA SPACETRACK.ORG API,18 SPCS,50803,STARLINK-3321,PAYLOAD,U,22001A,2022-03-26 22:00:00,999936,15.37202694,0.0001532,53.2173,172.2377,47.3825,250.4355,0,999,366,-0.021153,-0.00722088,0.0,3375650,0 STARLINK-3321,1 50803U 22001A   22085.91667824 -.00722088  00000-0 -21153-1 0  9993,2 50803  53.2173 172.2377 0001532  47.3825 250.4355 15.37202694  3666,2022-001A,50803,6832.523,93.677,455.434,453.341,1
GENERATED VIA SPACETRACK.ORG API,18 SPCS,50803,STARLINK-3321,PAYLOAD,U,22001A,2022-03-27 06:00:00,999648,15.36690167,0.0001688,53.2176,170.676,35.7314,307.4484,0,999,1374,-0.021329,-0.00716534,0.0,3375743,0 STARLINK-3321,1 50803U 22001A   22086.25001157 -.00716534  00000-0 -21329-1 0  9996,2 50803  53.2176 170.6760 0001688  35.7314 307.4484 15.36690167 13744,2022-001A,50803,6834.042,93.708,457.06,454.753,1
GENERATED VIA SPACETRACK.ORG API,18 SPCS,50803,STARLINK-3321,PAYLOAD,U,22001A,2022-03-27 14:00:01,224,15.3618232,0.0001753,53.2174,169.1181,35.0052,352.921,0,999,366,-0.021833,-0.00721129,0.0,3376641,0 STARLINK-3321,1 50803U 22001A   22086.58334491 -.00721129  00000-0 -21833-1 0  9998,2 50803  53.2174 169.1181 0001753  35.0052 352.9210 15.36182320  3666,2022-001A,50803,6835.548,93.739,458.611,456.215,1
GENERATED VIA SPACETRACK.ORG API,18 SPCS,50803,STARLINK-3321,PAYLOAD,U,22001A,2022-03-27 22:00:01,999584,15.3567115,0.0001472,53.2174,167.5582,44.982,27.1446,0,999,367,-0.022122,-0.00718851,0.0,3377053,0 STARLINK-3321,1 50803U 22001A   22086.91668981 -.00718851  00000-0 -22122-1 0  9999,2 50803  53.2174 167.5582 0001472  44.9820  27.1446 15.35671150  3679,2022-001A,50803,6837.065,93.77,459.936,457.923,1
GENERATED VIA SPACETRACK.ORG API,18 SPCS,50803,STARLINK-3321,PAYLOAD,U,22001A,2022-03-28 06:00:00,999648,15.3516015,0.0001697,53.2175,166.0001,40.9396,74.6462,0,999,1389,-0.022413,-0.00716638,0.0,3377131,0 STARLINK-3321,1 50803U 22001A   22087.25001157 -.00716638  00000-0 -22413-1 0  9997,2 50803  53.2175 166.0001 0001697  40.9396  74.6462 15.35160150 13896,2022-001A,50803,6838.582,93.801,461.607,459.286,1
GENERATED VIA SPACETRACK.ORG API,18 SPCS,50803,STARLINK-3321,PAYLOAD,U,22001A,2022-03-28 14:00:01,999872,15.34650089,0.000175,53.2174,164.4458,44.1386,114.4197,0,999,366,-0.022791,-0.00716883,0.0,3377801,0 STARLINK-3321,1 50803U 22001A   22087.58335648 -.00716883  00000-0 -22791-1 0  9999,2 50803  53.2174 164.4458 0001750  44.1386 114.4197 15.34650089  3664,2022-001A,50803,6840.097,93.832,463.159,460.765,1
GENERATED VIA SPACETRACK.ORG API,18 SPCS,50803,STARLINK-3321,PAYLOAD,U,22001A,2022-03-28 22:00:00,999936,15.34142109,0.0001716,53.2174,162.8894,44.1214,156.6699,0,999,365,-0.023273,-0.00719988,0.0,3378342,0 STARLINK-3321,1 50803U 22001A   22087.91667824 -.00719988  00000-0 -23273-1 0  9995,2 50803  53.2174 162.8894 0001716  44.1214 156.6699 15.34142109  3655,2022-001A,50803,6841.607,93.864,464.646,462.298,1
GENERATED VIA SPACETRACK.ORG API,18 SPCS,50803,STARLINK-3321,PAYLOAD,U,22001A,2022-03-29 04:00:00,999936,15.33758581,0.0001877,53.2174,161.7233,36.6147,105.4978,0,999,1403,-0.023492,-0.00718106,0.0,3378481,0 STARLINK-3321,1 50803U 22001A   22088.16667824 -.00718106  00000-0 -23492-1 0  9997,2 50803  53.2174 161.7233 0001877  36.6147 105.4978 15.33758581 14031,2022-001A,50803,6842.747,93.887,465.897,463.328,1
GENERATED VIA SPACETRACK.ORG API,18 SPCS,50803,STARLINK-3321,PAYLOAD,U,22001A,2022-03-29 14:00:01,224,15.33014417,0.0001883,53.2174,159.7829,45.5183,238.0952,0,999,362,-0.019477,-0.00583552,0.0,3379323,0 STARLINK-3321,1 50803U 22001A   22088.58334491 -.00583552  00000-0 -19477-1 0  9997,2 50803  53.2174 159.7829 0001883  45.5183 238.0952 15.33014417  3626,2022-001A,50803,6844.962,93.933,468.115,465.538,1
GENERATED VIA SPACETRACK.ORG API,18 SPCS,50803,STARLINK-3321,PAYLOAD,U,22001A,2022-03-29 22:00:00,999936,15.32535794,0.0001685,53.2176,158.2301,33.7077,290.3411,0,999,362,-0.02091,-0.00621609,0.0,3379484,0 STARLINK-3321,1 50803U 22001A   22088.91667824 -.00621609  00000-0 -20910-1 0  9993,2 50803  53.2176 158.2301 0001685  33.7077 290.3411 15.32535794  3624,2022-001A,50803,6846.387,93.962,469.405,467.098,1
GENERATED VIA SPACETRACK.ORG API,18 SPCS,50803,STARLINK-3321,PAYLOAD,U,22001A,2022-03-30 02:00:01,224,15.32357295,0.0001859,53.2174,157.4554,36.111,127.8941,0,999,1417,-0.024634,-0.0072012,0.0,3379582,0 STARLINK-3321,1 50803U 22001A   22089.08334491 -.00720120  00000-0 -24634-1 0  9998,2 50803  53.2174 157.4554 0001859  36.1110 127.8941 15.32357295 14173,2022-001A,50803,6846.918,93.973,470.056,467.51,1
GENERATED VIA SPACETRACK.ORG API,18 SPCS,50803,STARLINK-3321,PAYLOAD,U,22001A,2022-03-30 14:00:01,999872,15.3152823,0.0001661,53.2177,155.1326,39.0133,4.1661,0,999,363,-0.021953,-0.00631526,0.0,3380779,0 STARLINK-3321,1 50803U 22001A   22089.58335648 -.00631526  00000-0 -21953-1 0  9990,2 50803  53.2177 155.1326 0001661  39.0133   4.1661 15.31528230  3639,2022-001A,50803,6849.389,94.024,472.392,470.116,1
GENERATED VIA SPACETRACK.ORG API,18 SPCS,50803,STARLINK-3321,PAYLOAD,U,22001A,2022-03-30 22:00:00,999936,15.31080401,0.0001679,53.2176,153.5847,37.887,43.8179,0,999,368,-0.025521,-0.00716923,0.0,3380787,0 STARLINK-3321,1 50803U 22001A   22089.91667824 -.00716923  00000-0 -25521-1 0  9991,2 50803  53.2176 153.5847 0001679  37.8870  43.8179 15.31080401  3683,2022-001A,50803,6850.725,94.051,473.74,471.439,1
GENERATED VIA SPACETRACK.ORG API,18 SPCS,50803,STARLINK-3321,PAYLOAD,U,22001A,2022-03-31 04:00:00,999936,15.30696852,0.0001821,53.2176,152.4242,33.2198,347.0485,0,999,1434,-0.025731,-0.00714428,0.0,3380904,0 STARLINK-3321,1 50803U 22001A   22090.16667824 -.00714428  00000-0 -25731-1 0  9991,2 50803  53.2176 152.4242 0001821  33.2198 347.0485 15.30696852 14348,2022-001A,50803,6851.869,94.075,474.982,472.486,1
GENERATED VIA SPACETRACK.ORG API,18 SPCS,50803,STARLINK-3321,PAYLOAD,U,22001A,2022-03-31 14:00:01,224,15.3005731,0.0002177,53.2176,150.4944,30.2487,126.8583,0,999,365,-0.026138,-0.00711679,0.0,3381849,0 STARLINK-3321,1 50803U 22001A   22090.58334491 -.00711679  00000-0 -26138-1 0  9995,2 50803  53.2176 150.4944 0002177  30.2487 126.8583 15.30057310  3652,2022-001A,50803,6853.778,94.114,477.135,474.151,1
GENERATED VIA SPACETRACK.ORG API,18 SPCS,50803,STARLINK-3321,PAYLOAD,U,22001A,2022-03-31 22:00:00,999936,15.29454293,0.0001897,53.2177,148.947,29.6871,164.2588,0,999,362,-0.022028,-0.00596418,0.0,3382347,0 STARLINK-3321,1 50803U 22001A   22090.91667824 -.00596418  00000-0 -22028-1 0  9997,2 50803  53.2177 148.9470 0001897  29.6871 164.2588 15.29454293  3623,2022-001A,50803,6855.58,94.151,478.745,476.144,1
GENERATED VIA SPACETRACK.ORG API,18 SPCS,50803,STARLINK-3321,PAYLOAD,U,22001A,2022-04-01 06:00:00,999648,15.29040148,0.000199,53.2177,147.4058,36.3539,193.7035,0,999,1450,-0.02714,-0.00715655,0.0,3382477,0 STARLINK-3321,1 50803U 22001A   22091.25001157 -.00715655  00000-0 -27140-1 0  9992,2 50803  53.2177 147.4058 0001990  36.3539 193.7035 15.29040148 14502,2022-001A,50803,6856.817,94.177,480.047,477.318,1
GENERATED VIA SPACETRACK.ORG API,18 SPCS,50803,STARLINK-3321,PAYLOAD,U,22001A,2022-04-01 14:00:01,224,15.28527862,0.0001883,53.2176,145.8654,38.2554,227.3582,0,999,368,-0.027407,-0.00711666,0.0,3383353,0 STARLINK-3321,1 50803U 22001A   22091.58334491 -.00711666  00000-0 -27407-1 0  9992,2 50803  53.2176 145.8654 0001883  38.2554 227.3582 15.28527862  3684,2022-001A,50803,6858.349,94.208,481.506,478.923,1
GENERATED VIA SPACETRACK.ORG API,18 SPCS,50803,STARLINK-3321,PAYLOAD,U,22001A,2022-04-01 22:00:00,999936,15.28020745,0.0001653,53.2177,144.3231,41.5557,259.0014,0,999,364,-0.028047,-0.00724879,0.0,3383778,0 STARLINK-3321,1 50803U 22001A   22091.91667824 -.00724879  00000-0 -28047-1 0  9999,2 50803  53.2177 144.3231 0001653  41.5557 259.0014 15.28020745  3641,2022-001A,50803,6859.867,94.24,482.866,480.598,1
GENERATED VIA SPACETRACK.ORG API,18 SPCS,50803,STARLINK-3321,PAYLOAD,U,22001A,2022-04-02 04:00:00,999936,15.276384,0.0001781,53.2176,143.1684,44.2053,192.157,0,999,1464,-0.02835,-0.00724231,0.0,3383965,0 STARLINK-3321,1 50803U 22001A   22092.16667824 -.00724231  00000-0 -28350-1 0  9996,2 50803  53.2176 143.1684 0001781  44.2053 192.1570 15.27638400 14640,2022-001A,50803,6861.011,94.263,484.098,481.654,1
GENERATED VIA SPACETRACK.ORG API,18 SPCS,50803,STARLINK-3321,PAYLOAD,U,22001A,2022-04-02 22:00:01,999584,15.26395902,0.0001819,53.2175,139.7071,27.9956,13.8304,0,999,362,-0.023955,-0.0059087,0.0,3385473,0 STARLINK-3321,1 50803U 22001A   22092.91668981 -.00590870  00000-0 -23955-1 0  9990,2 50803  53.2175 139.7071 0001819  27.9956  13.8304 15.26395902  3628,2022-001A,50803,6864.734,94.34,487.848,485.35,1
GENERATED VIA SPACETRACK.ORG API,18 SPCS,50803,STARLINK-3321,PAYLOAD,U,22001A,2022-04-03 04:00:00,999936,15.26108557,0.00018,53.2178,138.5566,35.7904,300.3467,0,999,1480,-0.029714,-0.0072447,0.0,3385610,0 STARLINK-3321,1 50803U 22001A   22093.16667824 -.00724470  00000-0 -29714-1 0  9997,2 50803  53.2178 138.5566 0001800  35.7904 300.3467 15.26108557 14801,2022-001A,50803,6865.596,94.358,488.696,486.225,1
GENERATED VIA SPACETRACK.ORG API,18 SPCS,50803,STARLINK-3321,PAYLOAD,U,22001A,2022-04-03 22:00:00,999936,15.24959146,0.0001859,53.2175,135.1049,36.1264,101.2233,0,999,365,-0.030646,-0.00721858,0.0,3386965,0 STARLINK-3321,1 50803U 22001A   22093.91667824 -.00721858  00000-0 -30646-1 0  9993,2 50803  53.2175 135.1049 0001859  36.1264 101.2233 15.24959146  3651,2022-001A,50803,6869.045,94.429,492.187,489.633,1
